BEIDOU-3 G1 (C59)       
1 43683U 18085A   26117.33703758 -.00000117  00000+0  00000+0 0  9997
2 43683   2.9474  98.7204 0007400 333.3641  64.4946  1.00265526 27555
BEIDOU-3 M17 (C36)      
1 43706U 18093A   26117.36641638  .00000013  00000+0  00000+0 0  9997
2 43706  54.1668 184.0206 0009054 291.5790 113.2072  1.86228452 50597
BEIDOU-3 M18 (C37)      
1 43707U 18093B   26117.16247674  .00000010  00000+0  00000+0 0  9995
2 43707  54.1675 184.0196 0007083 324.7692  35.2480  1.86226384 50581
BEIDOU-3 IGSO-1 (C38)   
1 44204U 19023A   26110.03709628 -.00000228  00000+0  00000+0 0  9995
2 44204  58.6186  38.2497 0024357 235.9811  64.3555  1.00256582  6624
BEIDOU-2 G8 (C01)       
1 44231U 19027A   26117.56177785 -.00000255  00000+0  00000+0 0  9997
2 44231   1.5318  74.3748 0011015 279.4961 208.4101  1.00268123 25571
BEIDOU-3 IGSO-2 (C39)   
1 44337U 19035A   26117.01669462 -.00000091  00000+0  00000+0 0  9999
2 44337  55.2356 159.3113 0039369 215.1323 326.1005  1.00282395 25159
BEIDOU-3 M24 (C46)      
1 44542U 19061A   26117.23177363  .00000010  00000+0  00000+0 0  9994
2 44542  54.3942 184.4465 0008052   6.3303 353.7438  1.86228962 44847
BEIDOU-3 M23 (C45)      
1 44543U 19061B   26117.35306899  .00000012  00000+0  00000+0 0  9998
2 44543  54.3929 184.4106 0005039 348.6515   4.6594  1.86227195 44846
BEIDOU-3 IGSO-3 (C40)   
1 44709U 19073A   26116.86055463 -.00000201  00000+0  00000+0 0  9999
2 44709  54.8910 281.4498 0042200 188.8144 171.0242  1.00252491 23940
BEIDOU-3 M22 (C44)      
1 44793U 19078A   26115.99699650 -.00000055  00000+0  00000+0 0  9999
2 44793  53.9841 301.6629 0007305  45.8856 314.1715  1.86226949 43676
BEIDOU-3 M21 (C43)      
1 44794U 19078B   26116.67401454 -.00000060  00000+0  00000+0 0  9995
2 44794  53.9567 301.6016 0005184  43.3217 316.7148  1.86227493 43694
BEIDOU-3 M19 (C41)      
1 44864U 19090A   26117.11905514 -.00000046  00000+0  00000+0 0  9997
2 44864  56.5169  64.4771 0019746 296.1881 199.1410  1.86231407 43285
BEIDOU-3 M20 (C42)      
1 44865U 19090B   26116.40926545 -.00000038  00000+0  00000+0 0  9997
2 44865  56.5180  64.5353 0017474 308.3640 160.6881  1.86231167 43256
BEIDOU-3 G2 (C60)       
1 45344U 20017A   26117.00898125 -.00000149  00000+0  00000+0 0  9993
2 45344   2.7634  46.5387 0002550 348.2319 263.5062  1.00271422 22747
BEIDOU-3 G3 (C61)       
1 45807U 20040A   26117.49047071 -.00000361  00000+0  00000+0 0  9998
2 45807   2.3248  67.2965 0003780 329.9684 105.3197  1.00270098 21566
BEIDOU-3 G4 (C62)       
1 56564U 23066A   26117.47188631 -.00000291  00000+0  00000+0 0  9999
2 56564   0.5561 320.1476 0002857 159.8914  45.3872  1.00272248 10889
BEIDOU-3 M28 (C50)      
1 58654U 23207A   26116.75122104 -.00000044  00000+0  00000+0 0  9997
2 58654  55.7097  64.0374 0004600 323.2817  36.6572  1.86229709 15888
